[{"OBJECT_NAME":"STARLINK-4761","OBJECT_ID":"2022-114N","EPOCH":"2023-11-20T13:34:28.817184","MEAN_MOTION":15.08843061,"ECCENTRICITY":0.0001247,"INCLINATION":53.2178,"RA_OF_ASC_NODE":115.4102,"ARG_OF_PERICENTER":96.8279,"MEAN_ANOMALY":263.2855,"EPHEMERIS_TYPE":0,"CLASSIFICATION_TYPE":"U","NORAD_CAT_ID":53830,"ELEMENT_SET_NO":999,"REV_AT_EPOCH":6600,"BSTAR":4.3558e-5,"MEAN_MOTION_DOT":4.05e-6,"MEAN_MOTION_DDOT":0},{"OBJECT_NAME":"STARLINK-4649","OBJECT_ID":"2022-114P","EPOCH":"2023-11-20T13:55:42.537216","MEAN_MOTION":15.08838355,"ECCENTRICITY":0.000137,"INCLINATION":53.2161,"RA_OF_ASC_NODE":115.4996,"ARG_OF_PERICENTER":94.1277,"MEAN_ANOMALY":265.9872,"EPHEMERIS_TYPE":0,"CLASSIFICATION_TYPE":"U","NORAD_CAT_ID":53831,"ELEMENT_SET_NO":999,"REV_AT_EPOCH":6600,"BSTAR":3.2735e-5,"MEAN_MOTION_DOT":2.33e-6,"MEAN_MOTION_DDOT":0},{"OBJECT_NAME":"STARLINK-4747","OBJECT_ID":"2022-114Q","EPOCH":"2023-11-20T13:23:52.239264","MEAN_MOTION":15.08842824,"ECCENTRICITY":0.0001311,"INCLINATION":53.2166,"RA_OF_ASC_NODE":115.3676,"ARG_OF_PERICENTER":87.0286,"MEAN_ANOMALY":273.0856,"EPHEMERIS_TYPE":0,"CLASSIFICATION_TYPE":"U","NORAD_CAT_ID":53832,"ELEMENT_SET_NO":999,"REV_AT_EPOCH":6600,"BSTAR":5.8606e-5,"MEAN_MOTION_DOT":6.45e-6,"MEAN_MOTION_DDOT":0},{"OBJECT_NAME":"STARLINK-4771","OBJECT_ID":"2022-114R","EPOCH":"2023-11-20T13:39:47.336832","MEAN_MOTION":15.08839545,"ECCENTRICITY":0.000127,"INCLINATION":53.2161,"RA_OF_ASC_NODE":115.4331,"ARG_OF_PERICENTER":88.6349,"MEAN_ANOMALY":271.4789,"EPHEMERIS_TYPE":0,"CLASSIFICATION_TYPE":"U","NORAD_CAT_ID":53833,"ELEMENT_SET_NO":999,"REV_AT_EPOCH":6600,"BSTAR":7.3655e-5,"MEAN_MOTION_DOT":8.85e-6,"MEAN_MOTION_DDOT":0},{"OBJECT_NAME":"STARLINK-4737","OBJECT_ID":"2022-114S","EPOCH":"2023-11-20T10:02:29.569920","MEAN_MOTION":15.08839567,"ECCENTRICITY":0.0001296,"INCLINATION":53.217,"RA_OF_ASC_NODE":115.9158,"ARG_OF_PERICENTER":88.7355,"MEAN_ANOMALY":271.3786,"EPHEMERIS_TYPE":0,"CLASSIFICATION_TYPE":"U","NORAD_CAT_ID":53834,"ELEMENT_SET_NO":999,"REV_AT_EPOCH":6544,"BSTAR":2.1893e-5,"MEAN_MOTION_DOT":6.1e-7,"MEAN_MOTION_DDOT":0},{"OBJECT_NAME":"STARLINK-4783","OBJECT_ID":"2022-114T","EPOCH":"2023-11-20T13:29:10.478112","MEAN_MOTION":15.08846801,"ECCENTRICITY":0.0001357,"INCLINATION":53.2169,"RA_OF_ASC_NODE":115.3886,"ARG_OF_PERICENTER":86.8607,"MEAN_ANOMALY":273.254,"EPHEMERIS_TYPE":0,"CLASSIFICATION_TYPE":"U","NORAD_CAT_ID":53835,"ELEMENT_SET_NO":999,"REV_AT_EPOCH":6600,"BSTAR":8.0522e-5,"MEAN_MOTION_DOT":9.94e-6,"MEAN_MOTION_DDOT":0},{"OBJECT_NAME":"STARLINK-4778","OBJECT_ID":"2022-114U","EPOCH":"2023-11-20T14:23:33.921024","MEAN_MOTION":15.0884472,"ECCENTRICITY":0.0001319,"INCLINATION":53.2182,"RA_OF_ASC_NODE":105.6359,"ARG_OF_PERICENTER":90.246,"MEAN_ANOMALY":269.8683,"EPHEMERIS_TYPE":0,"CLASSIFICATION_TYPE":"U","NORAD_CAT_ID":53836,"ELEMENT_SET_NO":999,"REV_AT_EPOCH":6614,"BSTAR":4.6716e-5,"MEAN_MOTION_DOT":4.56e-6,"MEAN_MOTION_DDOT":0},{"OBJECT_NAME":"STARLINK-4776","OBJECT_ID":"2022-114V","EPOCH":"2023-11-20T13:18:34.134336","MEAN_MOTION":15.08840597,"ECCENTRICITY":0.0001368,"INCLINATION":53.2174,"RA_OF_ASC_NODE":115.344,"ARG_OF_PERICENTER":87.8585,"MEAN_ANOMALY":272.2564,"EPHEMERIS_TYPE":0,"CLASSIFICATION_TYPE":"U","NORAD_CAT_ID":53837,"ELEMENT_SET_NO":999,"REV_AT_EPOCH":6600,"BSTAR":7.1046e-5,"MEAN_MOTION_DOT":8.43e-6,"MEAN_MOTION_DDOT":0},{"OBJECT_NAME":"STARLINK-4773","OBJECT_ID":"2022-114W","EPOCH":"2023-11-20T14:18:15.656256","MEAN_MOTION":15.08844282,"ECCENTRICITY":0.0001412,"INCLINATION":53.2179,"RA_OF_ASC_NODE":105.6169,"ARG_OF_PERICENTER":86.5624,"MEAN_ANOMALY":273.553,"EPHEMERIS_TYPE":0,"CLASSIFICATION_TYPE":"U","NORAD_CAT_ID":53838,"ELEMENT_SET_NO":999,"REV_AT_EPOCH":6614,"BSTAR":5.9364e-5,"MEAN_MOTION_DOT":6.57e-6,"MEAN_MOTION_DDOT":0},{"OBJECT_NAME":"STARLINK-4784","OBJECT_ID":"2022-114X","EPOCH":"2023-11-20T14:28:52.211712","MEAN_MOTION":15.08843972,"ECCENTRICITY":0.0001444,"INCLINATION":53.2159,"RA_OF_ASC_NODE":105.6618,"ARG_OF_PERICENTER":87.5322,"MEAN_ANOMALY":272.5835,"EPHEMERIS_TYPE":0,"CLASSIFICATION_TYPE":"U","NORAD_CAT_ID":53839,"ELEMENT_SET_NO":999,"REV_AT_EPOCH":6614,"BSTAR":2.2365e-5,"MEAN_MOTION_DOT":6.8e-7,"MEAN_MOTION_DDOT":0},{"OBJECT_NAME":"STARLINK-4766","OBJECT_ID":"2022-114Y","EPOCH":"2023-11-20T14:03:43.511328","MEAN_MOTION":15.08838777,"ECCENTRICITY":0.0001453,"INCLINATION":53.2187,"RA_OF_ASC_NODE":105.555,"ARG_OF_PERICENTER":90.9081,"MEAN_ANOMALY":269.2077,"EPHEMERIS_TYPE":0,"CLASSIFICATION_TYPE":"U","NORAD_CAT_ID":53840,"ELEMENT_SET_NO":999,"REV_AT_EPOCH":6614,"BSTAR":5.1495e-5,"MEAN_MOTION_DOT":5.32e-6,"MEAN_MOTION_DDOT":0},{"OBJECT_NAME":"STARLINK-4750","OBJECT_ID":"2022-114Z","EPOCH":"2023-11-20T14:12:57.583296","MEAN_MOTION":15.08853428,"ECCENTRICITY":0.0001655,"INCLINATION":53.2161,"RA_OF_ASC_NODE":105.5926,"ARG_OF_PERICENTER":86.8679,"MEAN_ANOMALY":273.2502,"EPHEMERIS_TYPE":0,"CLASSIFICATION_TYPE":"U","NORAD_CAT_ID":53841,"ELEMENT_SET_NO":999,"REV_AT_EPOCH":6614,"BSTAR":0.00013107,"MEAN_MOTION_DOT":1.799e-5,"MEAN_MOTION_DDOT":0},{"OBJECT_NAME":"STARLINK-4754","OBJECT_ID":"2022-114AA","EPOCH":"2023-11-20T13:51:44.296128","MEAN_MOTION":15.08838874,"ECCENTRICITY":0.0001343,"INCLINATION":53.2182,"RA_OF_ASC_NODE":105.502,"ARG_OF_PERICENTER":87.6673,"MEAN_ANOMALY":272.4473,"EPHEMERIS_TYPE":0,"CLASSIFICATION_TYPE":"U","NORAD_CAT_ID":53842,"ELEMENT_SET_NO":999,"REV_AT_EPOCH":6614,"BSTAR":8.5586e-5,"MEAN_MOTION_DOT":1.074e-5,"MEAN_MOTION_DDOT":0},{"OBJECT_NAME":"STARLINK-4769","OBJECT_ID":"2022-114AB","EPOCH":"2023-11-20T14:07:38.620416","MEAN_MOTION":15.08860649,"ECCENTRICITY":0.0001056,"INCLINATION":53.217,"RA_OF_ASC_NODE":105.5697,"ARG_OF_PERICENTER":91.4002,"MEAN_ANOMALY":268.7112,"EPHEMERIS_TYPE":0,"CLASSIFICATION_TYPE":"U","NORAD_CAT_ID":53843,"ELEMENT_SET_NO":999,"REV_AT_EPOCH":6614,"BSTAR":-0.00024089,"MEAN_MOTION_DOT":-4.122e-5,"MEAN_MOTION_DDOT":0},{"OBJECT_NAME":"STARLINK-4745","OBJECT_ID":"2022-114AC","EPOCH":"2023-11-20T13:41:07.370016","MEAN_MOTION":15.08838654,"ECCENTRICITY":0.0001136,"INCLINATION":53.216,"RA_OF_ASC_NODE":105.4559,"ARG_OF_PERICENTER":76.7542,"MEAN_ANOMALY":283.3577,"EPHEMERIS_TYPE":0,"CLASSIFICATION_TYPE":"U","NORAD_CAT_ID":53844,"ELEMENT_SET_NO":999,"REV_AT_EPOCH":6614,"BSTAR":-9.3763e-6,"MEAN_MOTION_DOT":-4.37e-6,"MEAN_MOTION_DDOT":0},{"OBJECT_NAME":"STARLINK-4753","OBJECT_ID":"2022-114AD","EPOCH":"2023-11-20T13:57:02.771712","MEAN_MOTION":15.08840229,"ECCENTRICITY":0.0001538,"INCLINATION":53.2188,"RA_OF_ASC_NODE":105.5449,"ARG_OF_PERICENTER":83.5881,"MEAN_ANOMALY":276.5286,"EPHEMERIS_TYPE":0,"CLASSIFICATION_TYPE":"U","NORAD_CAT_ID":53845,"ELEMENT_SET_NO":999,"REV_AT_EPOCH":6614,"BSTAR":8.6629e-5,"MEAN_MOTION_DOT":1.091e-5,"MEAN_MOTION_DDOT":0},{"OBJECT_NAME":"STARLINK-4746","OBJECT_ID":"2022-114AE","EPOCH":"2023-11-20T13:30:30.775680","MEAN_MOTION":15.08836498,"ECCENTRICITY":0.000137,"INCLINATION":53.2168,"RA_OF_ASC_NODE":105.4101,"ARG_OF_PERICENTER":91.4629,"MEAN_ANOMALY":268.6521,"EPHEMERIS_TYPE":0,"CLASSIFICATION_TYPE":"U","NORAD_CAT_ID":53846,"ELEMENT_SET_NO":999,"REV_AT_EPOCH":6614,"BSTAR":4.2231e-5,"MEAN_MOTION_DOT":3.84e-6,"MEAN_MOTION_DDOT":0}]
