STARLINK-4761           
1 53830U 22114N   23324.56561131  .00000405  00000+0  43558-4 0  9998
2 53830  53.2178 115.4102 0001247  96.8279 263.2855 15.08843061 66005
STARLINK-4649           
1 53831U 22114P   23324.58035344  .00000233  00000+0  32735-4 0  9997
2 53831  53.2161 115.4996 0001370  94.1277 265.9872 15.08838355 66003
STARLINK-4747           
1 53832U 22114Q   23324.55824351  .00000645  00000+0  58606-4 0  9991
2 53832  53.2166 115.3676 0001311  87.0286 273.0856 15.08842824 66007
STARLINK-4771           
1 53833U 22114R   23324.56929788  .00000885  00000+0  73655-4 0  9990
2 53833  53.2161 115.4331 0001270  88.6349 271.4789 15.08839545 66006
STARLINK-4737           
1 53834U 22114S   23324.41839780  .00000061  00000+0  21893-4 0  9990
2 53834  53.2170 115.9158 0001296  88.7355 271.3786 15.08839567 65442
STARLINK-4783           
1 53835U 22114T   23324.56192683  .00000994  00000+0  80522-4 0  9990
2 53835  53.2169 115.3886 0001357  86.8607 273.2540 15.08846801 66001
STARLINK-4778           
1 53836U 22114U   23324.59969816  .00000456  00000+0  46716-4 0  9994
2 53836  53.2182 105.6359 0001319  90.2460 269.8683 15.08844720 66140
STARLINK-4776           
1 53837U 22114V   23324.55456174  .00000843  00000+0  71046-4 0  9993
2 53837  53.2174 115.3440 0001368  87.8585 272.2564 15.08840597 66004
STARLINK-4773           
1 53838U 22114W   23324.59601454  .00000657  00000+0  59364-4 0  9993
2 53838  53.2179 105.6169 0001412  86.5624 273.5530 15.08844282 66147
STARLINK-4784           
1 53839U 22114X   23324.60338208  .00000068  00000+0  22365-4 0  9997
2 53839  53.2159 105.6618 0001444  87.5322 272.5835 15.08843972 66148
STARLINK-4766           
1 53840U 22114Y   23324.58592027  .00000532  00000+0  51495-4 0  9999
2 53840  53.2187 105.5550 0001453  90.9081 269.2077 15.08838777 66143
STARLINK-4750           
1 53841U 22114Z   23324.59233314  .00001799  00000+0  13107-3 0  9995
2 53841  53.2161 105.5926 0001655  86.8679 273.2502 15.08853428 66142
STARLINK-4754           
1 53842U 22114AA  23324.57759602  .00001074  00000+0  85586-4 0  9994
2 53842  53.2182 105.5020 0001343  87.6673 272.4473 15.08838874 66144
STARLINK-4769           
1 53843U 22114AB  23324.58864144 -.00004122  00000+0 -24089-3 0  9993
2 53843  53.2170 105.5697 0001056  91.4002 268.7112 15.08860649 66145
STARLINK-4745           
1 53844U 22114AC  23324.57022419 -.00000437  00000+0 -93763-5 0  9996
2 53844  53.2160 105.4559 0001136  76.7542 283.3577 15.08838654 66144
STARLINK-4753           
1 53845U 22114AD  23324.58128208  .00001091  00000+0  86629-4 0  9998
2 53845  53.2188 105.5449 0001538  83.5881 276.5286 15.08840229 66144
STARLINK-4746           
1 53846U 22114AE  23324.56285620  .00000384  00000+0  42231-4 0  9994
2 53846  53.2168 105.4101 0001370  91.4629 268.6521 15.08836498 66146
